ASTRA 1D                
1 23331U 94070A   17280.15904812 -.00000271  00000-0  00000+0 0  9990
2 23331   7.7281  48.4630 0003309 146.7788 165.5186  1.00270426 84321
ASTRA 1F                
1 23842U 96021A   17280.59132095  .00000129  00000-0  00000+0 0  9990
2 23842   0.0518   5.3228 0004151 199.7242  68.5662  1.00270226 78491
AMC-1 (GE-1)            
1 24315U 96054A   17279.55263911  .00000051  00000-0  00000+0 0  9992
2 24315   1.7959  84.4700 0002941 115.8703 244.8929  1.00270552 77185
AMC-2 (GE-2)            
1 24713U 97002A   17280.40185062 -.00000218  00000-0  00000+0 0  9990
2 24713   4.5398  65.3274 0005054 133.7326 237.0225  1.00270927 26494
AMC-3 (GE-3)            
1 24936U 97050A   17279.80952208 -.00000268  00000-0  00000-0 0  9992
2 24936   0.6107  91.7907 0002881 106.7396  36.5708  1.00270477 20597
NSS-5                   
1 24957U 97053A   17280.51230122  .00000101  00000-0  00000+0 0  9996
2 24957   4.0505  68.7057 0003323 132.8059  49.7973  1.00274325 73402
ASTRA 1G                
1 25071U 97076A   17280.15309206  .00000099  00000-0  00000+0 0  9995
2 25071   2.5462  77.9390 0003424 122.3131 281.9628  1.00270992 72709
NSS-806                 
1 25239U 98014A   17280.42327288 -.00000289  00000-0  00000+0 0  9996
2 25239   0.0595 355.2757 0004733 203.9838 281.9162  1.00271319 71827
ASTRA 2A                
1 25462U 98050A   17279.84404094 -.00000369  00000-0  00000-0 0  9999
2 25462   0.0551 242.3933 0002539 318.4047 232.2642  1.00271000 14506
ASTRA 1H                
1 25785U 99033A   17280.07707591  .00000131  00000-0  00000+0 0  9999
2 25785   4.0348  68.8632 0002597 127.3619 250.9468  1.00273919 66955
AMC-4 (GE-4)            
1 25954U 99060A   17279.33253920  .00000078  00000-0  00000+0 0  9996
2 25954   0.0410  95.6941 0002921  99.8682 164.4600  1.00272267 65641
ASTRA 2B                
1 26494U 00054A   17280.35086181 -.00000162  00000-0  00000+0 0  9993
2 26494   2.4363  78.5889 0004667 124.0605 280.2754  1.00271478 62401
AMC-7 (GE-7)            
1 26495U 00054B   17279.33281934  .00000078  00000-0  00000+0 0  9998
2 26495   0.0666  85.5706 0002263 152.3154 122.1234  1.00272774 62419
NSS-11 (AAP-1)          
1 26554U 00059A   17280.38527429 -.00000355  00000-0  00000+0 0  9997
2 26554   0.0358  81.6787 0003052 135.5671  45.8500  1.00271609 62337
AMC-6 (GE-6)            
1 26580U 00067A   17280.52823823 -.00000226  00000-0  00000+0 0  9995
2 26580   0.0375  74.4727 0003096 136.9490 272.1306  1.00271107 62153
ASTRA 2D                
1 26638U 00081A   17278.98677238  .00000042  00000-0  00000+0 0  9994
2 26638   3.8601  69.5060 0001653 118.2562 242.0295  1.00270062 61549
AMC-8 (GE-8)            
1 26639U 00081B   17280.52479922  .00000094  00000-0  00000+0 0  9995
2 26639   0.0419  75.6334 0002493 129.6305 221.0322  1.00271746 61449
ASTRA 2C                
1 26853U 01025A   17280.73521456  .00000036  00000-0  00000+0 0  9991
2 26853   0.6325  91.2529 0003635 103.9868 146.3088  1.00271841 59741
ASTRA 3A                
1 27400U 02015B   17280.27586882 -.00000288  00000-0  00000+0 0  9993
2 27400   4.0229  68.2126 0002871 145.2235 215.0099  1.00275181 56885
NSS-7                   
1 27414U 02019A   17279.24434171 -.00000163  00000-0  00000-0 0  9993
2 27414   2.1204  82.4349 0002242 113.0759 247.5625  1.00273295 56725
NSS-6                   
1 27603U 02057A   17280.45335128 -.00000280  00000-0  00000+0 0  9991
2 27603   0.0412  95.2680 0002895 125.1106  54.1363  1.00270829 54254
AMC-9 (GE-12)           
1 27820U 03024A   17280.59256367  .00000004  00000-0  00000+0 0  9992
2 27820   0.2114  89.7191 0026058 300.2066  84.9231  0.99984496 52509
AMC-10 (GE-10)          
1 28154U 04003A   17280.74351498  .00000077  00000-0  00000+0 0  9999
2 28154   0.0365  82.6291 0001784  76.3890 350.2375  1.00273011 50103
AMC-11 (GE-11)          
1 28252U 04017A   17279.76434925  .00000059  00000-0  00000-0 0  9991
2 28252   0.0449  41.6872 0002767 159.3611 318.7408  1.00271334 49100
AMC-15                  
1 28446U 04041A   17280.52563398 -.00000099  00000-0  00000+0 0  9990
2 28446   0.0460  49.5281 0002464 172.1821 238.8671  1.00271836 47557
AMC-16                  
1 28472U 04048A   17280.52823823 -.00000217  00000-0  00000+0 0  9990
2 28472   0.0428  47.1990 0002940 157.0582 277.2981  1.00271375 46981
NSS-10 (AMC-12)         
1 28526U 05003A   17280.82615648 -.00000261  00000-0  00000+0 0  9998
2 28526   0.0419 291.9641 0002953 272.1830  72.5000  1.00272257 46485
ASTRA 1KR               
1 29055U 06012A   17280.77094031  .00000109  00000-0  00000+0 0  9998
2 29055   0.0797 273.9717 0004947 300.9822  98.4247  1.00271413 41918
AMC-18                  
1 29644U 06054B   17280.52563847 -.00000100  00000-0  00000+0 0  9999
2 29644   0.0311  91.2075 0002722 110.5339 258.9220  1.00271069 39726
ASTRA 1L                
1 31306U 07016A   17280.21171025  .00000110  00000-0  00000+0 0  9995
2 31306   0.0940 295.7993 0003688 306.4671 229.2383  1.00274104 38205
ASTRA 4A (SIRIUS 4)     
1 32299U 07057A   17279.84907101  .00000023  00000-0  00000-0 0  9995
2 32299   0.0120 230.2733 0003108 335.8883 119.9978  1.00271521 19867
AMC-21                  
1 33275U 08038B   17279.59092310  .00000026  00000-0  00000-0 0  9992
2 33275   0.0490  61.1598 0002688 151.2535 250.8878  1.00273162 33658
ASTRA 1M                
1 33436U 08057A   17280.39910248  .00000110  00000-0  00000+0 0  9994
2 33436   0.0539  97.5308 0004939  74.2991   7.2793  1.00271916 32647
CIEL-2                  
1 33453U 08063A   17280.49244640  .00000048  00000-0  00000+0 0  9997
2 33453   0.0154 187.5656 0003496  27.3418 209.8477  1.00271753 32328
NSS-9                   
1 33749U 09008A   17280.46239451  .00000062  00000-0  00000+0 0  9992
2 33749   0.0463  47.5937 0002489 146.1745 172.0706  1.00272346 31739
SES-7 (PROTOSTAR 2)     
1 34941U 09027A   17279.88913257 -.00000355  00000-0  00000-0 0  9992
2 34941   0.0677  82.6370 0002381 158.3998 203.0775  1.00271156 30792
NSS-12                  
1 36032U 09058A   17279.79824842  .00000061  00000-0  00000-0 0  9993
2 36032   0.0374  76.4555 0002568 130.0315 153.5314  1.00272976 29092
SES-1                   
1 36516U 10016A   17280.53190323 -.00000125  00000-0  00000+0 0  9991
2 36516   0.0437  58.0777 0002204 142.1380 266.6654  1.00271581 27300
ASTRA 3B                
1 36581U 10021A   17280.39910248  .00000127  00000-0  00000+0 0  9990
2 36581   0.0544 313.0846 0003024 244.5085 345.8214  1.00271557 26812
SES-3                   
1 37748U 11035A   17280.52773916 -.00000112  00000-0  00000+0 0  9991
2 37748   0.0395  58.6604 0002146 144.8048 259.9144  1.00271461 22863
ASTRA 1N                
1 37775U 11041A   17280.39910248  .00000110  00000-0  00000+0 0  9991
2 37775   0.0653  41.6217 0001398  84.8957  52.6145  1.00272371 22569
SES-2                   
1 37809U 11049A   17280.52823823 -.00000206  00000-0  00000+0 0  9991
2 37809   0.0422  66.6152 0002491 128.7411 284.1924  1.00271655 22183
QUETZSAT 1              
1 37826U 11054A   17280.52754380 -.00000252  00000-0  00000+0 0  9998
2 37826   0.0452  47.2676 0002549 141.0154 301.0082  1.00270033 22269
SES-4                   
1 38087U 12007A   17280.10785983 -.00000178  00000-0  00000+0 0  9991
2 38087   0.0255 321.6811 0002155 240.2406 190.8731  1.00271385 20652
SES-5                   
1 38652U 12036A   17280.05046022  .00000024  00000-0  00000+0 0  9998
2 38652   0.0472 263.3384 0001977 296.5949 199.1264  1.00271977 19237
ASTRA 2F                
1 38778U 12051A   17279.87800856  .00000140  00000-0  00000-0 0  9995
2 38778   0.0586 229.8473 0004724 343.6251 146.5294  1.00272193  9320
SES-6                   
1 39172U 13026A   17280.06827062 -.00000271  00000-0  00000+0 0  9993
2 39172   0.0423 309.7948 0002656 264.3554 145.8643  1.00271386 15893
O3B FM5                 
1 39188U 13031A   17279.44272628 -.00000019  00000-0  00000-0 0  9999
2 39188   0.0582   8.4853 0008397 189.3510 162.1405  5.00115906 78256
O3B FM4                 
1 39189U 13031B   17279.53470986 -.00000019  00000-0  00000-0 0  9997
2 39189   0.0331 352.8857 0002112  62.2690 304.8715  5.00115819 78269
O3B FM2                 
1 39190U 13031C   17277.31092373 -.00000020  00000-0  00000-0 0  9995
2 39190   0.0332 343.5472 0002783  64.3650 312.1172  5.00115754 78127
O3B PFM                 
1 39191U 13031D   17280.53246540 -.00000019  00000-0  00000+0 0  9998
2 39191   0.0501   6.2883 0002979 150.9173 202.8140  5.00115891 78294
ASTRA 2E                
1 39285U 13056A   17279.87720070  .00000140  00000-0  00000-0 0  9994
2 39285   0.0710 332.0161 0002443 216.7977 171.2133  1.00270016 14623
SES-8                   
1 39460U 13071A   17278.69573659 -.00000279  00000-0  00000-0 0  9998
2 39460   0.0149 241.4760 0002018 287.4281 191.1309  1.00269712 12662
ASTRA 5B                
1 39617U 14011B   17280.39424314  .00000144  00000-0  00000+0 0  9999
2 39617   0.0542 315.7982 0003884 235.5850 358.3134  1.00274812 13034
O3B FM3                 
1 40079U 14038A   17277.04621640 -.00000021  00000-0  00000-0 0  9997
2 40079   0.0413 358.3000 0004914 196.4429 165.2484  5.00115742 54220
O3B FM7                 
1 40080U 14038B   17278.40015034 -.00000019  00000-0  00000+0 0  9990
2 40080   0.0390 358.6039 0003172 197.9308 163.4610  5.00115424 59209
O3B FM6                 
1 40081U 14038C   17277.02391025 -.00000021  00000-0  00000-0 0  9999
2 40081   0.0403 358.5635 0003655 196.6088 164.8224  5.00114807 58987
O3B FM8                 
1 40082U 14038D   17279.46715461 -.00000019  00000-0  00000-0 0  9991
2 40082   0.0371 357.3028 0003061 173.0347 189.6746  5.00115987 59203
O3B FM10                
1 40348U 14083A   17277.29043683 -.00000020  00000-0  00000+0 0  9996
2 40348   0.0469   1.6857 0002507 215.9635 142.3390  5.00115886 51071
O3B FM11                
1 40349U 14083B   17277.31229135 -.00000020  00000-0  00000-0 0  9999
2 40349   0.0481   4.3212 0002120 202.6236 153.0500  5.00115711 51060
O3B FM12                
1 40350U 14083C   17279.57809909 -.00000019  00000-0  00000-0 0  9992
2 40350   0.0469   4.1093 0002331 191.7821 164.1077  5.00115508 51195
O3B FM9                 
1 40351U 14083D   17279.55558514 -.00000019  00000-0  00000+0 0  9993
2 40351   0.0490   3.5133 0002542 205.7498 150.7290  5.00115522 51192
ASTRA 2G                
1 40364U 14089A   17279.87801753  .00000140  00000-0  00000+0 0  9998
2 40364   0.0046  16.1005 0001949  89.9763 253.9447  1.00267473 10181
SES-9                   
1 41380U 16013A   17279.65613863 -.00000355  00000-0  00000-0 0  9995
2 41380   0.0332 288.5439 0001314 240.6545 190.8358  1.00272019  5652
SES-10                  
1 42432U 17017A   17280.14142861 -.00000283  00000-0  00000+0 0  9999
2 42432   0.0118 221.6340 0002928 347.2788 151.0710  1.00270899  1940
SES-15                  
1 42709U 17026A   17281.00000000 -.00000106  00000-0  00000+0 0  9994
2 42709   1.0290 201.6660 2173748 232.3890 141.5390  1.09899010  2345
